TRITON-1                
1 39427U 13066M   26140.94451509  .00001531  00000+0  18896-3 0  9995
2 39427  97.8265  51.3723 0089407 324.1449  35.3783 14.81575363670050
GOMX-1                  
1 39430U 13066Q   26140.94726470  .00001455  00000+0  22435-3 0  9990
2 39430  97.6495 343.1282 0129086 164.3418 196.1840 14.69338396665915
CUBEBUG-2 (LO-74)       
1 39440U 13066AA  26140.59658574  .00002516  00000+0  23645-3 0  9994
2 39440  97.8896  89.4669 0059385 118.1105 242.6134 14.93520077672878
NEE-02 KRYSAOR          
1 39441U 13066AB  26140.34243893  .00001052  00000+0  12059-3 0  9993
2 39441  97.8886  79.7609 0066681 159.7585 200.6298 14.86498349672068
FUNCUBE-1 (AO-73)       
1 39444U 13066AE  26140.67569056  .00005251  00000+0  33102-3 0  9991
2 39444  97.8265 111.5579 0034836 298.9376  60.8360 15.09093359675511
UWE-3                   
1 39446U 13066AG  26139.87297777  .00002931  00000+0  25518-3 0  9995
2 39446  97.8681  95.7656 0050416  55.1859 305.4090 14.96754231673340
SMDC ONE 2.4            
1 39469U 13072H   26140.33979445  .00006773  00000+0  27385-3 0  9991
2 39469 120.4895 244.6206 0141097 349.0243  10.7768 15.17605480113600
COSMOS 2488 (RODNIK-S 7)
1 39483U 13076A   26140.91068755  .00000107  00000+0  70189-3 0  9993
2 39483  82.4843 185.6889 0020258 152.0194 208.1980 12.42905210562504
COSMOS 2489 (RODNIK-S 8)
1 39484U 13076B   26140.96581242  .00000121  00000+0  79996-3 0  9991
2 39484  82.4881 187.0242 0022092 152.0293 208.1979 12.42879826562561
COSMOS 2490 (RODNIK-S 9)
1 39485U 13076C   26140.93765444  .00000198  00000+0  13564-2 0  9999
2 39485  82.4826 185.1213 0021906 167.4549 192.7080 12.42877752562494
KAZEOSAT 1              
1 39731U 14024A   26140.96157897 -.00000002  00000+0  12508-4 0  9991
2 39731  98.3207 214.0841 0001609  88.2130 271.9244 14.42067088634633
COSMOS 2496 (RODNIK-S *)
1 39761U 14028A   26140.97572564  .00000023  00000+0  91317-4 0  9998
2 39761  82.4425 125.7753 0020737 135.4606 224.8144 12.42877438544135
COSMOS 2497 (RODNIK-S *)
1 39762U 14028B   26140.95135039  .00000080  00000+0  50803-3 0  9996
2 39762  82.4473 127.4699 0021394 130.7534 229.5407 12.42893290544133
COSMOS 2498 (RODNIK-S *)
1 39763U 14028C   26140.93083844  .00000083  00000+0  52830-3 0  9996
2 39763  82.4433 125.9817 0022102 130.4750 229.8261 12.42979653544162
HODOYOSHI-4             
1 40011U 14033B   26140.93573623  .00001272  00000+0  14336-3 0  9999
2 40011  97.5450 327.0753 0024669  39.0252 321.2739 14.88057145644759
UNISAT-6                
1 40012U 14033C   26140.96891715  .00002380  00000+0  25997-3 0  9994
2 40012  97.7853 294.1686 0045873 156.6797 203.6515 14.88065165642112
DEIMOS-2                
1 40013U 14033D   26140.91814841  .00000970  00000+0  96966-4 0  9993
2 40013  97.5854  16.3614 0002195  74.3382 285.8081 14.93637610633658
BUGSAT-1 (TITA)         
1 40014U 14033E   26140.96410131  .00003288  00000+0  17739-3 0  9998
2 40014  98.0414 231.9289 0026621 273.8610  85.9577 15.15264051651716
SAUDISAT 4              
1 40016U 14033G   26140.66073483  .00000425  00000+0  62721-4 0  9994
2 40016  97.7548 287.7540 0045341 161.2573 199.0321 14.79498051642003
APRIZESAT 9             
1 40018U 14033J   26140.31099940  .00000296  00000+0  51247-4 0  9991
2 40018  97.9022 274.1970 0064815 290.3379  69.0873 14.74176479639451
BRITE-CA1 (TORONTO)     
1 40020U 14033L   26140.31618105  .00000407  00000+0  68905-4 0  9997
2 40020  97.9701 269.7647 0078724   7.1930 353.0388 14.72634211638110
