OBJECT_NAME,OBJECT_ID,EPOCH,MEAN_MOTION,ECCENTRICITY,INCLINATION,RA_OF_ASC_NODE,ARG_OF_PERICENTER,MEAN_ANOMALY,EPHEMERIS_TYPE,CLASSIFICATION_TYPE,NORAD_CAT_ID,ELEMENT_SET_NO,REV_AT_EPOCH,BSTAR,MEAN_MOTION_DOT,MEAN_MOTION_DDOT
TRITON-1,2013-066M,2026-05-20T22:40:06.103776,14.81575363,.00894076,97.8265,51.3723,324.1449,35.3783,0,U,39427,999,67005,.18895866E-3,.1531E-4,0
GOMX-1,2013-066Q,2026-05-20T22:44:03.670080,14.69338396,.01290861,97.6495,343.1282,164.3418,196.1840,0,U,39430,999,66591,.22435104E-3,.1455E-4,0
CUBEBUG-2 (LO-74),2013-066AA,2026-05-20T14:19:05.007936,14.93520077,.0059385,97.8896,89.4669,118.1105,242.6134,0,U,39440,999,67287,.23645483E-3,.2516E-4,0
NEE-02 KRYSAOR,2013-066AB,2026-05-20T08:13:06.723552,14.86498349,.00666819,97.8886,79.7609,159.7585,200.6298,0,U,39441,999,67206,.1205875E-3,.1052E-4,0
FUNCUBE-1 (AO-73),2013-066AE,2026-05-20T16:12:59.664384,15.09093359,.0034836,97.8265,111.5579,298.9376,60.8360,0,U,39444,999,67551,.33101689E-3,.5251E-4,0
UWE-3,2013-066AG,2026-05-19T20:57:05.279328,14.96754231,.00504162,97.8681,95.7656,55.1859,305.4090,0,U,39446,999,67334,.25518464E-3,.2931E-4,0
SMDC ONE 2.4,2013-072H,2026-05-20T08:09:18.240480,15.17605480,.01410978,120.4895,244.6206,349.0243,10.7768,0,U,39469,999,11360,.27385193E-3,.6773E-4,0
COSMOS 2488 (RODNIK-S 7),2013-076A,2026-05-20T21:51:23.404320,12.42905210,.00202586,82.4843,185.6889,152.0194,208.1980,0,U,39483,999,56250,.70189414E-3,.107E-5,0
COSMOS 2489 (RODNIK-S 8),2013-076B,2026-05-20T23:10:46.193088,12.42879826,.00220923,82.4881,187.0242,152.0293,208.1979,0,U,39484,999,56256,.79996374E-3,.121E-5,0
COSMOS 2490 (RODNIK-S 9),2013-076C,2026-05-20T22:30:13.343616,12.42877752,.00219068,82.4826,185.1213,167.4549,192.7080,0,U,39485,999,56249,.13563673E-2,.198E-5,0
KAZEOSAT 1,2014-024A,2026-05-20T23:04:40.423008,14.42067088,.00016092,98.3207,214.0841,88.2130,271.9244,0,U,39731,999,63463,.1250792E-4,-.2E-7,0
COSMOS 2496 (RODNIK-S 10),2014-028A,2026-05-20T23:25:02.695296,12.42877438,.00207377,82.4425,125.7753,135.4606,224.8144,0,U,39761,999,54413,.91316983E-4,.23E-6,0
COSMOS 2497 (RODNIK-S 11),2014-028B,2026-05-20T22:49:56.673696,12.42893290,.00213949,82.4473,127.4699,130.7534,229.5407,0,U,39762,999,54413,.50803468E-3,.8E-6,0
COSMOS 2498 (RODNIK-S 12),2014-028C,2026-05-20T22:20:24.441216,12.42979653,.00221029,82.4433,125.9817,130.4750,229.8261,0,U,39763,999,54416,.52829623E-3,.83E-6,0
HODOYOSHI-4,2014-033B,2026-05-20T22:27:27.610272,14.88057145,.00246697,97.5450,327.0753,39.0252,321.2739,0,U,40011,999,64475,.14335687E-3,.1272E-4,0
UNISAT-6,2014-033C,2026-05-20T23:15:14.441760,14.88065165,.00458734,97.7853,294.1686,156.6797,203.6515,0,U,40012,999,64211,.25997382E-3,.238E-4,0
DEIMOS-2,2014-033D,2026-05-20T22:02:08.022624,14.93637610,.00021957,97.5854,16.3614,74.3382,285.8081,0,U,40013,999,63365,.96965685E-4,.97E-5,0
BUGSAT-1 (TITA),2014-033E,2026-05-20T23:08:18.353184,15.15264051,.00266214,98.0414,231.9289,273.8610,85.9577,0,U,40014,999,65171,.17738618E-3,.3288E-4,0
SAUDISAT 4,2014-033G,2026-05-20T15:51:27.489312,14.79498051,.00453416,97.7548,287.7540,161.2573,199.0321,0,U,40016,999,64200,.627214E-4,.425E-5,0
APRIZESAT 9,2014-033J,2026-05-20T07:27:50.348160,14.74176479,.00648154,97.9022,274.1970,290.3379,69.0873,0,U,40018,999,63945,.51247174E-4,.296E-5,0
BRITE-CA1 (TORONTO),2014-033L,2026-05-20T07:35:18.042720,14.72634211,.00787246,97.9701,269.7647,7.1930,353.0388,0,U,40020,999,63811,.68904928E-4,.407E-5,0
